CCSDS_OMM_VERS = 2.0
CREATION_DATE  = 
ORIGINATOR     = 

OBJECT_NAME    = SL-3 R/B
OBJECT_ID      = 1982-079B
CENTER_NAME    = EARTH
REF_FRAME      = TEME
TIME_SYSTEM    = UTC
MEAN_ELEMENT_THEORY = SGP/SGP4

EPOCH          = 2026-02-27T16:35:52.752192
MEAN_MOTION    = 15.24619033
ECCENTRICITY   = .0024663
INCLINATION    = 81.1459
RA_OF_ASC_NODE = 204.8799
ARG_OF_PERICENTER = 198.3172
MEAN_ANOMALY   = 161.7176

EPHEMERIS_TYPE = 0
CLASSIFICATION_TYPE = U
NORAD_CAT_ID   = 13403
ELEMENT_SET_NO = 999
REV_AT_EPOCH   = 37617
BSTAR          = .30123E-3
MEAN_MOTION_DOT = .7521E-4
MEAN_MOTION_DDOT = 0

CCSDS_OMM_VERS = 2.0
CREATION_DATE  = 
ORIGINATOR     = 

OBJECT_NAME    = SL-14 R/B
OBJECT_ID      = 1982-092B
CENTER_NAME    = EARTH
REF_FRAME      = TEME
TIME_SYSTEM    = UTC
MEAN_ELEMENT_THEORY = SGP/SGP4

EPOCH          = 2026-02-27T12:54:47.452608
MEAN_MOTION    = 14.86654269
ECCENTRICITY   = .0019684
INCLINATION    = 82.5709
RA_OF_ASC_NODE = 150.8928
ARG_OF_PERICENTER = 339.0557
MEAN_ANOMALY   = 31.2738

EPHEMERIS_TYPE = 0
CLASSIFICATION_TYPE = U
NORAD_CAT_ID   = 13553
ELEMENT_SET_NO = 999
REV_AT_EPOCH   = 32742
BSTAR          = .54961E-4
MEAN_MOTION_DOT = .514E-5
MEAN_MOTION_DDOT = 0

CCSDS_OMM_VERS = 2.0
CREATION_DATE  = 
ORIGINATOR     = 

OBJECT_NAME    = SL-3 R/B
OBJECT_ID      = 1983-010B
CENTER_NAME    = EARTH
REF_FRAME      = TEME
TIME_SYSTEM    = UTC
MEAN_ELEMENT_THEORY = SGP/SGP4

EPOCH          = 2026-02-27T14:24:26.001216
MEAN_MOTION    = 15.45931431
ECCENTRICITY   = .0018629
INCLINATION    = 81.1046
RA_OF_ASC_NODE = 14.6112
ARG_OF_PERICENTER = 82.8078
MEAN_ANOMALY   = 277.5284

EPHEMERIS_TYPE = 0
CLASSIFICATION_TYPE = U
NORAD_CAT_ID   = 13819
ELEMENT_SET_NO = 999
REV_AT_EPOCH   = 35638
BSTAR          = .34021E-3
MEAN_MOTION_DOT = .16707E-3
MEAN_MOTION_DDOT = 0

CCSDS_OMM_VERS = 2.0
CREATION_DATE  = 
ORIGINATOR     = 

OBJECT_NAME    = SL-3 R/B
OBJECT_ID      = 1983-075B
CENTER_NAME    = EARTH
REF_FRAME      = TEME
TIME_SYSTEM    = UTC
MEAN_ELEMENT_THEORY = SGP/SGP4

EPOCH          = 2026-02-27T16:03:55.201824
MEAN_MOTION    = 15.38131044
ECCENTRICITY   = .0019616
INCLINATION    = 97.6136
RA_OF_ASC_NODE = 62.8701
ARG_OF_PERICENTER = 265.3647
MEAN_ANOMALY   = 94.5356

EPHEMERIS_TYPE = 0
CLASSIFICATION_TYPE = U
NORAD_CAT_ID   = 14208
ELEMENT_SET_NO = 999
REV_AT_EPOCH   = 32861
BSTAR          = .30644E-3
MEAN_MOTION_DOT = .11493E-3
MEAN_MOTION_DDOT = 0

CCSDS_OMM_VERS = 2.0
CREATION_DATE  = 
ORIGINATOR     = 

OBJECT_NAME    = COSMOS 1536
OBJECT_ID      = 1984-013A
CENTER_NAME    = EARTH
REF_FRAME      = TEME
TIME_SYSTEM    = UTC
MEAN_ELEMENT_THEORY = SGP/SGP4

EPOCH          = 2026-02-27T14:33:46.687968
MEAN_MOTION    = 15.23671416
ECCENTRICITY   = .0013119
INCLINATION    = 82.5449
RA_OF_ASC_NODE = 117.8728
ARG_OF_PERICENTER = 322.8328
MEAN_ANOMALY   = 37.1999

EPHEMERIS_TYPE = 0
CLASSIFICATION_TYPE = U
NORAD_CAT_ID   = 14699
ELEMENT_SET_NO = 999
REV_AT_EPOCH   = 27108
BSTAR          = .24508E-3
MEAN_MOTION_DOT = .5922E-4
MEAN_MOTION_DDOT = 0

CCSDS_OMM_VERS = 2.0
CREATION_DATE  = 
ORIGINATOR     = 

OBJECT_NAME    = SL-14 R/B
OBJECT_ID      = 1984-027B
CENTER_NAME    = EARTH
REF_FRAME      = TEME
TIME_SYSTEM    = UTC
MEAN_ELEMENT_THEORY = SGP/SGP4

EPOCH          = 2026-02-27T12:36:13.937184
MEAN_MOTION    = 14.85964008
ECCENTRICITY   = .0018252
INCLINATION    = 82.5380
RA_OF_ASC_NODE = 254.5486
ARG_OF_PERICENTER = 12.0802
MEAN_ANOMALY   = 348.0848

EPHEMERIS_TYPE = 0
CLASSIFICATION_TYPE = U
NORAD_CAT_ID   = 14820
ELEMENT_SET_NO = 999
REV_AT_EPOCH   = 24612
BSTAR          = .52389E-4
MEAN_MOTION_DOT = .483E-5
MEAN_MOTION_DDOT = 0

CCSDS_OMM_VERS = 2.0
CREATION_DATE  = 
ORIGINATOR     = 

OBJECT_NAME    = SL-8 R/B
OBJECT_ID      = 1985-006B
CENTER_NAME    = EARTH
REF_FRAME      = TEME
TIME_SYSTEM    = UTC
MEAN_ELEMENT_THEORY = SGP/SGP4

EPOCH          = 2026-02-27T09:09:44.110656
MEAN_MOTION    = 14.37776435
ECCENTRICITY   = .0018873
INCLINATION    = 74.0437
RA_OF_ASC_NODE = 280.1175
ARG_OF_PERICENTER = 200.0731
MEAN_ANOMALY   = 332.7849

EPHEMERIS_TYPE = 0
CLASSIFICATION_TYPE = U
NORAD_CAT_ID   = 15483
ELEMENT_SET_NO = 999
REV_AT_EPOCH   = 15254
BSTAR          = .63909E-4
MEAN_MOTION_DOT = .166E-5
MEAN_MOTION_DDOT = 0

CCSDS_OMM_VERS = 2.0
CREATION_DATE  = 
ORIGINATOR     = 

OBJECT_NAME    = SL-12 R/B(2)
OBJECT_ID      = 1985-042D
CENTER_NAME    = EARTH
REF_FRAME      = TEME
TIME_SYSTEM    = UTC
MEAN_ELEMENT_THEORY = SGP/SGP4

EPOCH          = 2026-02-27T13:58:13.389024
MEAN_MOTION    = 14.21979296
ECCENTRICITY   = .0033756
INCLINATION    = 71.1069
RA_OF_ASC_NODE = 109.0848
ARG_OF_PERICENTER = 144.6407
MEAN_ANOMALY   = 7.1671

EPHEMERIS_TYPE = 0
CLASSIFICATION_TYPE = U
NORAD_CAT_ID   = 15772
ELEMENT_SET_NO = 999
REV_AT_EPOCH   = 11295
BSTAR          = .39903E-4
MEAN_MOTION_DOT = .41E-6
MEAN_MOTION_DDOT = 0

CCSDS_OMM_VERS = 2.0
CREATION_DATE  = 
ORIGINATOR     = 

OBJECT_NAME    = SL-14 R/B
OBJECT_ID      = 1985-069B
CENTER_NAME    = EARTH
REF_FRAME      = TEME
TIME_SYSTEM    = UTC
MEAN_ELEMENT_THEORY = SGP/SGP4

EPOCH          = 2026-02-27T15:32:37.328064
MEAN_MOTION    = 14.86419119
ECCENTRICITY   = .0017634
INCLINATION    = 82.5263
RA_OF_ASC_NODE = 34.3756
ARG_OF_PERICENTER = 222.1612
MEAN_ANOMALY   = 137.8249

EPHEMERIS_TYPE = 0
CLASSIFICATION_TYPE = U
NORAD_CAT_ID   = 15945
ELEMENT_SET_NO = 999
REV_AT_EPOCH   = 17134
BSTAR          = .62387E-4
MEAN_MOTION_DOT = .576E-5
MEAN_MOTION_DDOT = 0

CCSDS_OMM_VERS = 2.0
CREATION_DATE  = 
ORIGINATOR     = 

OBJECT_NAME    = SL-16 R/B
OBJECT_ID      = 1985-097B
CENTER_NAME    = EARTH
REF_FRAME      = TEME
TIME_SYSTEM    = UTC
MEAN_ELEMENT_THEORY = SGP/SGP4

EPOCH          = 2026-02-27T12:59:23.486784
MEAN_MOTION    = 14.16598512
ECCENTRICITY   = .0009809
INCLINATION    = 71.0038
RA_OF_ASC_NODE = 161.9178
ARG_OF_PERICENTER = 271.3395
MEAN_ANOMALY   = 176.8694

EPHEMERIS_TYPE = 0
CLASSIFICATION_TYPE = U
NORAD_CAT_ID   = 16182
ELEMENT_SET_NO = 999
REV_AT_EPOCH   = 8579
BSTAR          = .11787E-3
MEAN_MOTION_DOT = .187E-5
MEAN_MOTION_DDOT = 0

CCSDS_OMM_VERS = 2.0
CREATION_DATE  = 
ORIGINATOR     = 

OBJECT_NAME    = SL-14 R/B
OBJECT_ID      = 1986-006B
CENTER_NAME    = EARTH
REF_FRAME      = TEME
TIME_SYSTEM    = UTC
MEAN_ELEMENT_THEORY = SGP/SGP4

EPOCH          = 2026-02-27T06:58:48.493920
MEAN_MOTION    = 14.86799270
ECCENTRICITY   = .0075365
INCLINATION    = 82.5237
RA_OF_ASC_NODE = 269.5267
ARG_OF_PERICENTER = 307.9444
MEAN_ANOMALY   = 51.4977

EPHEMERIS_TYPE = 0
CLASSIFICATION_TYPE = U
NORAD_CAT_ID   = 16496
ELEMENT_SET_NO = 999
REV_AT_EPOCH   = 14766
BSTAR          = .64035E-4
MEAN_MOTION_DOT = .626E-5
MEAN_MOTION_DDOT = 0

CCSDS_OMM_VERS = 2.0
CREATION_DATE  = 
ORIGINATOR     = 

OBJECT_NAME    = COSMOS 1743
OBJECT_ID      = 1986-034A
CENTER_NAME    = EARTH
REF_FRAME      = TEME
TIME_SYSTEM    = UTC
MEAN_ELEMENT_THEORY = SGP/SGP4

EPOCH          = 2026-02-27T11:52:50.782944
MEAN_MOTION    = 15.57740930
ECCENTRICITY   = .0002798
INCLINATION    = 82.5310
RA_OF_ASC_NODE = 84.5252
ARG_OF_PERICENTER = 353.1848
MEAN_ANOMALY   = 6.9369

EPHEMERIS_TYPE = 0
CLASSIFICATION_TYPE = U
NORAD_CAT_ID   = 16719
ELEMENT_SET_NO = 999
REV_AT_EPOCH   = 17866
BSTAR          = .49776E-3
MEAN_MOTION_DOT = .3706E-3
MEAN_MOTION_DDOT = 0

