SL-3 R/B                
1 13403U 82079B   26058.69158278  .00007521  00000+0  30123-3 0  9990
2 13403  81.1459 204.8799 0024663 198.3172 161.7176 15.24619033376179
SL-14 R/B               
1 13553U 82092B   26058.53804922  .00000514  00000+0  54961-4 0  9990
2 13553  82.5709 150.8928 0019684 339.0557  31.2738 14.86654269327426
SL-3 R/B                
1 13819U 83010B   26058.60030094  .00016707  00000+0  34021-3 0  9990
2 13819  81.1046  14.6112 0018629  82.8078 277.5284 15.45931431356384
SL-3 R/B                
1 14208U 83075B   26058.66938891  .00011493  00000+0  30644-3 0  9996
2 14208  97.6136  62.8701 0019616 265.3647  94.5356 15.38131044328611
COSMOS 1536             
1 14699U 84013A   26058.60679037  .00005922  00000+0  24508-3 0  9993
2 14699  82.5449 117.8728 0013119 322.8328  37.1999 15.23671416271082
SL-14 R/B               
1 14820U 84027B   26058.52516131  .00000483  00000+0  52389-4 0  9996
2 14820  82.5380 254.5486 0018252  12.0802 348.0848 14.85964008246123
SL-8 R/B                
1 15483U 85006B   26058.38176054  .00000166  00000+0  63909-4 0  9998
2 15483  74.0437 280.1175 0018873 200.0731 332.7849 14.37776435152542
SL-12 R/B(2)            
1 15772U 85042D   26058.58209941  .00000041  00000+0  39903-4 0  9992
2 15772  71.1069 109.0848 0033756 144.6407   7.1671 14.21979296112958
SL-14 R/B               
1 15945U 85069B   26058.64765426  .00000576  00000+0  62387-4 0  9990
2 15945  82.5263  34.3756 0017634 222.1612 137.8249 14.86419119171341
SL-16 R/B               
1 16182U 85097B   26058.54124406  .00000187  00000+0  11787-3 0  9996
2 16182  71.0038 161.9178 0009809 271.3395 176.8694 14.16598512 85790
SL-14 R/B               
1 16496U 86006B   26058.29083905  .00000626  00000+0  64035-4 0  9998
2 16496  82.5237 269.5267 0075365 307.9444  51.4977 14.86799270147669
COSMOS 1743             
1 16719U 86034A   26058.49503221  .00037060  00000+0  49776-3 0  9993
2 16719  82.5310  84.5252 0002798 353.1848   6.9369 15.57740930178661
